KUIPER-00044            
1 64505U 25134F   26191.01464712  .00002370  00000+0  33980-3 0  9996
2 64505  51.8977  64.6352 0000666 115.7251 244.3780 14.79933085 58016
KUIPER-00046            
1 64506U 25134G   26190.37581065  .00002192  00000+0  31655-3 0  9995
2 64506  51.8987  64.9372 0000680 108.4902 251.6134 14.79920612 57959
KUIPER-00047            
1 64507U 25134H   26189.83146939  .00001968  00000+0  28718-3 0  9998
2 64507  51.8993  39.8671 0000717 102.7578 257.3465 14.79924993 58257
KUIPER-00048            
1 64508U 25134J   26190.00028939  .00000817  00000+0  13621-3 0  9998
2 64508  51.9008  39.1329 0000835 110.3456 249.7597 14.79914462 58284
KUIPER-00049            
1 64509U 25134K   26191.30363810  .00002302  00000+0  33085-3 0  9990
2 64509  51.8992  45.8356 0000624 107.1412 252.9618 14.79932126 58302
KUIPER-00050            
1 64510U 25134L   26189.97192331  .00002054  00000+0  29843-3 0  9991
2 64510  51.9003  34.2459 0000740 110.9821 249.1221 14.79924471 58356
KUIPER-00051            
1 64511U 25134M   26191.00954149  .00002040  00000+0  29663-3 0  9997
2 64511  51.9005  45.8295 0000776 106.5959 253.5088 14.79923425 58276
KUIPER-00053            
1 64513U 25134P   26190.96874072  .00001550  00000+0  22321-3 0  9998
2 64513  51.9012  41.3162 0000287 302.6013  57.4922 14.81682229 58339
KUIPER-00054            
1 64514U 25134Q   26189.99759858  .00002128  00000+0  30824-3 0  9993
2 64514  51.8980  41.6251 0000836 110.5593 249.5460 14.79906563 58242
KUIPER-00055            
1 64515U 25134R   26191.43320675  .00002379  00000+0  34099-3 0  9993
2 64515  51.9020 347.9077 0000614 110.3998 249.7031 14.79936716 59125
KUIPER-00056            
1 64516U 25134S   26190.97139769  .00002313  00000+0  33234-3 0  9992
2 64516  51.9026  42.4123 0000758 110.5998 249.5045 14.79930654 58321
KUIPER-00057            
1 64517U 25134T   26191.33336806 -.00018586  00000+0 -24150-2 0  9992
2 64517  51.9000  48.2430 0000721 110.5068  62.4994 14.79944622  5582
KUIPER-00058            
1 64518U 25134U   26191.00245811  .00002237  00000+0  32244-3 0  9990
2 64518  51.9001  44.6772 0000632 115.4747 244.6281 14.79924458 58296
KUIPER-00059            
1 64519U 25134V   26191.00785248  .00002245  00000+0  32341-3 0  9991
2 64519  51.8998  39.6940 0000812 109.6047 250.5003 14.79932012 58361
KUIPER-00060            
1 64520U 25134W   26191.64939372  .00002076  00000+0  30115-3 0  9991
2 64520  51.9012  36.9205 0000616  91.7751 268.3282 14.79936619 58442
KUIPER-00061            
1 64521U 25134X   26191.20231369  .00002269  00000+0  32686-3 0  9994
2 64521  51.9007  46.3492 0000840  90.9826 269.1232 14.79896941 58271
